[{"OBJECT_NAME":"STARLINK-32757","OBJECT_ID":"2025-003F","EPOCH":"2026-03-09T14:06:20.201184","MEAN_MOTION":15.27601008,"ECCENTRICITY":0.00013,"INCLINATION":42.9926,"RA_OF_ASC_NODE":289.7462,"ARG_OF_PERICENTER":75.9369,"MEAN_ANOMALY":284.1627,"EPHEMERIS_TYPE":0,"CLASSIFICATION_TYPE":"U","NORAD_CAT_ID":62492,"ELEMENT_SET_NO":999,"REV_AT_EPOCH":6653,"BSTAR":0.00081611,"MEAN_MOTION_DOT":0.00022278,"MEAN_MOTION_DDOT":0},{"OBJECT_NAME":"BLUEBON","OBJECT_ID":"2025-009CH","EPOCH":"2026-03-09T16:52:33.225312","MEAN_MOTION":15.29047254,"ECCENTRICITY":0.00011933,"INCLINATION":97.4017,"RA_OF_ASC_NODE":152.2033,"ARG_OF_PERICENTER":43.39,"MEAN_ANOMALY":316.7434,"EPHEMERIS_TYPE":0,"CLASSIFICATION_TYPE":"U","NORAD_CAT_ID":62688,"ELEMENT_SET_NO":999,"REV_AT_EPOCH":6376,"BSTAR":0.00037313027,"MEAN_MOTION_DOT":0.00010452,"MEAN_MOTION_DDOT":0}]
